[{"OBJECT_NAME":"STARLINK-4499","OBJECT_ID":"2022-097Q","EPOCH":"2026-03-09T12:46:10.854048","MEAN_MOTION":15.08838565,"ECCENTRICITY":0.00015516,"INCLINATION":53.2177,"RA_OF_ASC_NODE":124.8293,"ARG_OF_PERICENTER":80.9527,"MEAN_ANOMALY":279.1641,"EPHEMERIS_TYPE":0,"CLASSIFICATION_TYPE":"U","NORAD_CAT_ID":53402,"ELEMENT_SET_NO":999,"REV_AT_EPOCH":19849,"BSTAR":0.00012756868,"MEAN_MOTION_DOT":1.743e-5,"MEAN_MOTION_DDOT":0},{"OBJECT_NAME":"ELECTRON KICK STAGE R\/B","OBJECT_ID":"2025-229C","EPOCH":"2026-03-09T11:01:34.584384","MEAN_MOTION":15.04670102,"ECCENTRICITY":0.00392514,"INCLINATION":41.9818,"RA_OF_ASC_NODE":119.4948,"ARG_OF_PERICENTER":118.9737,"MEAN_ANOMALY":241.5033,"EPHEMERIS_TYPE":0,"CLASSIFICATION_TYPE":"U","NORAD_CAT_ID":65973,"ELEMENT_SET_NO":999,"REV_AT_EPOCH":2194,"BSTAR":0.00045211532,"MEAN_MOTION_DOT":6.384e-5,"MEAN_MOTION_DDOT":0}]
